{
  "type": "FeatureCollection",
  "name": "india_coastline",
  "crs": {
    "type": "name",
    "properties": {
      "name": "urn:ogc:def:crs:OGC:1.3:CRS84"
    }
  },
  "features": [
    {
      "type": "Feature",
      "properties": {
        "id": "LAND-RAMESWARAM-ISLAND",
        "name": "Rameswaram Island (Pamban Island)",
        "feature_type": "LANDMASS_OBSTACLE",
        "state": "Tamil Nadu",
        "navigable": false
      },
      "geometry": {
        "type": "Polygon",
        "coordinates": [
          [
            [79.1900, 9.2780],
            [79.2200, 9.2850],
            [79.2600, 9.2900],
            [79.3100, 9.2920],
            [79.3500, 9.2750],
            [79.3900, 9.2300],
            [79.4150, 9.1850],
            [79.3900, 9.1750],
            [79.3400, 9.2200],
            [79.2800, 9.2600],
            [79.2200, 9.2650],
            [79.1900, 9.2780]
          ]
        ]
      }
    },
    {
      "type": "Feature",
      "properties": {
        "id": "LAND-MANDAPAM-MAINLAND",
        "name": "Mandapam - Ramanathapuram Mainland Coast",
        "feature_type": "LANDMASS_OBSTACLE",
        "state": "Tamil Nadu",
        "navigable": false
      },
      "geometry": {
        "type": "Polygon",
        "coordinates": [
          [
            [78.9500, 9.1500],
            [79.0500, 9.2000],
            [79.1200, 9.2600],
            [79.1550, 9.2780],
            [79.1500, 9.2950],
            [79.1000, 9.3200],
            [79.0000, 9.3500],
            [78.9000, 9.4000],
            [78.8000, 9.4500],
            [78.7000, 9.4500],
            [78.7000, 9.1000],
            [78.9500, 9.1500]
          ]
        ]
      }
    },
    {
      "type": "Feature",
      "properties": {
        "id": "LAND-TUTICORIN-COAST",
        "name": "Tuticorin (Thoothukudi) Mainland Coastal Shelf",
        "feature_type": "LANDMASS_OBSTACLE",
        "state": "Tamil Nadu",
        "navigable": false
      },
      "geometry": {
        "type": "Polygon",
        "coordinates": [
          [
            [78.1000, 8.6500],
            [78.1600, 8.7500],
            [78.1800, 8.8200],
            [78.2200, 8.9200],
            [78.3500, 9.0500],
            [78.5000, 9.1200],
            [78.1000, 9.1200],
            [78.0000, 8.6500],
            [78.1000, 8.6500]
          ]
        ]
      }
    },
    {
      "type": "Feature",
      "properties": {
        "id": "LAND-SRILANKA-MANNAR",
        "name": "Mannar Island & Northwest Sri Lanka Coast",
        "feature_type": "LANDMASS_OBSTACLE",
        "country": "Sri Lanka",
        "navigable": false
      },
      "geometry": {
        "type": "Polygon",
        "coordinates": [
          [
            [79.6800, 9.0500],
            [79.7500, 9.0800],
            [79.8500, 9.0500],
            [79.9200, 8.9800],
            [80.0000, 8.9000],
            [80.0500, 8.8000],
            [79.8500, 8.7000],
            [79.7200, 8.8500],
            [79.6800, 9.0500]
          ]
        ]
      }
    },
    {
      "type": "Feature",
      "properties": {
        "id": "LAND-SRILANKA-JAFFNA",
        "name": "Jaffna Peninsula & Islands",
        "feature_type": "LANDMASS_OBSTACLE",
        "country": "Sri Lanka",
        "navigable": false
      },
      "geometry": {
        "type": "Polygon",
        "coordinates": [
          [
            [79.8000, 9.5500],
            [79.9000, 9.6500],
            [80.0500, 9.8000],
            [80.2000, 9.8500],
            [80.3000, 9.6000],
            [80.1000, 9.4500],
            [79.9500, 9.4500],
            [79.8000, 9.5500]
          ]
        ]
      }
    }
  ]
}
