{
  "type": "FeatureCollection",
  "name": "india_imbl",
  "crs": {
    "type": "name",
    "properties": {
      "name": "urn:ogc:def:crs:OGC:1.3:CRS84"
    }
  },
  "features": [
    {
      "type": "Feature",
      "properties": {
        "id": "IMBL-PALK-BAY",
        "name": "India-Sri Lanka IMBL (Palk Bay & Palk Strait)",
        "boundary_type": "IMBL",
        "buffer_km": 2.0,
        "critical_km": 1.0,
        "treaty": "1974 Bilateral Maritime Agreement",
        "country_left": "India",
        "country_right": "Sri Lanka",
        "alert_level": "CRITICAL_GEOPERIMETER"
      },
      "geometry": {
        "type": "LineString",
        "coordinates": [
          [80.0500, 10.0833],
          [79.9800, 10.0200],
          [79.8250, 9.9500],
          [79.7500, 9.8000],
          [79.6850, 9.6692],
          [79.5900, 9.5100],
          [79.5117, 9.3633],
          [79.4600, 9.2900],
          [79.5333, 9.2167],
          [79.5333, 9.1000]
        ]
      }
    },
    {
      "type": "Feature",
      "properties": {
        "id": "IMBL-GULF-OF-MANNAR",
        "name": "India-Sri Lanka IMBL (Gulf of Mannar)",
        "boundary_type": "IMBL",
        "buffer_km": 2.0,
        "critical_km": 1.0,
        "treaty": "1976 Bilateral Maritime Agreement",
        "country_left": "India",
        "country_right": "Sri Lanka",
        "alert_level": "CRITICAL_GEOPERIMETER"
      },
      "geometry": {
        "type": "LineString",
        "coordinates": [
          [79.5333, 9.1000],
          [79.5217, 9.0000],
          [79.4883, 8.8967],
          [79.4000, 8.8000],
          [79.3033, 8.6667],
          [79.2167, 8.6200],
          [79.0783, 8.5200],
          [78.9233, 8.3700],
          [78.8950, 8.2033],
          [78.7450, 7.5883],
          [78.6467, 7.3500],
          [78.2033, 6.5133],
          [77.8450, 5.8983],
          [77.1767, 5.0000]
        ]
      }
    },
    {
      "type": "Feature",
      "properties": {
        "id": "IMBL-RAMESWARAM-SECTOR",
        "name": "Rameswaram - Katchatheevu High-Risk Corridor",
        "boundary_type": "HIGH_RISK_BUFFER",
        "buffer_km": 2.0,
        "critical_km": 1.0,
        "description": "Critical monitoring sector around Adam's Bridge and Dhanushkodi with highest rate of unintentional maritime drift."
      },
      "geometry": {
        "type": "LineString",
        "coordinates": [
          [79.3100, 9.2800],
          [79.3800, 9.2900],
          [79.4500, 9.2700],
          [79.5117, 9.2400],
          [79.5333, 9.1800],
          [79.5333, 9.1000]
        ]
      }
    }
  ]
}
