{
  "type": "FeatureCollection",
  "name": "marine_protected_areas",
  "crs": {
    "type": "name",
    "properties": {
      "name": "urn:ogc:def:crs:OGC:1.3:CRS84"
    }
  },
  "features": [
    {
      "type": "Feature",
      "properties": {
        "id": "MPA-GULF-OF-MANNAR-MANDAPAM-GROUP",
        "name": "Gulf of Mannar Marine National Park - Mandapam Island Group",
        "category": "BIOSPHERE_RESERVE",
        "restriction": "NO_BOTTOM_TRAWLING",
        "max_speed_knots": 6.0,
        "description": "Protected coral reef and seagrass beds encompassing Krusadai, Shingle, and Pullivasal islands."
      },
      "geometry": {
        "type": "Polygon",
        "coordinates": [
          [
            [79.1600, 9.2000],
            [79.2500, 9.2200],
            [79.2600, 9.2500],
            [79.1800, 9.2500],
            [79.1400, 9.2200],
            [79.1600, 9.2000]
          ]
        ]
      }
    },
    {
      "type": "Feature",
      "properties": {
        "id": "MPA-GULF-OF-MANNAR-KEEZHAKARAI-GROUP",
        "name": "Gulf of Mannar Marine National Park - Keezhakarai Island Group",
        "category": "CORAL_REEF_SANCTUARY",
        "restriction": "RESTRICTED_TRANSIT",
        "max_speed_knots": 8.0,
        "description": "Protected reefs surrounding Mulli, Valai, and Thalaiyari islands."
      },
      "geometry": {
        "type": "Polygon",
        "coordinates": [
          [
            [78.8500, 9.0800],
            [78.9800, 9.1500],
            [79.0200, 9.1800],
            [78.9600, 9.1900],
            [78.8200, 9.1100],
            [78.8500, 9.0800]
          ]
        ]
      }
    },
    {
      "type": "Feature",
      "properties": {
        "id": "MPA-PALK-BAY-DUGONG-RESERVE",
        "name": "Palk Bay Dugong Conservation Reserve",
        "category": "MARINE_MAMMAL_SANCTUARY",
        "restriction": "SPEED_LIMIT_10KTS",
        "max_speed_knots": 10.0,
        "description": "India's first Dugong conservation reserve spanning coastal waters from Adirampattinam to Ammapattinam."
      },
      "geometry": {
        "type": "Polygon",
        "coordinates": [
          [
            [79.0500, 9.5000],
            [79.3500, 9.6500],
            [79.4000, 9.8500],
            [79.1500, 9.9000],
            [78.9500, 9.7000],
            [79.0500, 9.5000]
          ]
        ]
      }
    }
  ]
}
