{
  "type": "Feature",
  "properties": {
    "geometry_type": "marine_astar_route",
    "waypoint_count": 22
  },
  "geometry": {
    "type": "LineString",
    "coordinates": [
      [
        79.15,
        9.17
      ],
      [
        79.16,
        9.16
      ],
      [
        79.17,
        9.16
      ],
      [
        79.18,
        9.16
      ],
      [
        79.19,
        9.16
      ],
      [
        79.2,
        9.16
      ],
      [
        79.21,
        9.16
      ],
      [
        79.22,
        9.16
      ],
      [
        79.23,
        9.16
      ],
      [
        79.24,
        9.16
      ],
      [
        79.25,
        9.15
      ],
      [
        79.26,
        9.14
      ],
      [
        79.27,
        9.13
      ],
      [
        79.27,
        9.12
      ],
      [
        79.27,
        9.11
      ],
      [
        79.27,
        9.1
      ],
      [
        79.27,
        9.09
      ],
      [
        79.27,
        9.08
      ],
      [
        79.27,
        9.07
      ],
      [
        79.27,
        9.06
      ],
      [
        79.27,
        9.05
      ],
      [
        79.27,
        9.04
      ]
    ]
  }
}